<?xml version="1.0" encoding="UTF-8"?>
<ndm xmlns:xsi="http://www.w3.org/2001/XMLSchema-instance" xsi:noNamespaceSchemaLocation="https://sanaregistry.org/r/ndmxml_unqualified/ndmxml-2.0.0-master-2.0.xsd">
<omm id="CCSDS_OMM_VERS" version="2.0">
<header><CREATION_DATE/><ORIGINATOR/></header><body><segment><metadata><OBJECT_NAME>2022-167J</OBJECT_NAME><OBJECT_ID>2022-167J</OBJECT_ID><CENTER_NAME>EARTH</CENTER_NAME><REF_FRAME>TEME</REF_FRAME><TIME_SYSTEM>UTC</TIME_SYSTEM><MEAN_ELEMENT_THEORY>SGP4</MEAN_ELEMENT_THEORY></metadata><data><meanElements><EPOCH>2022-12-13T22:58:10.620768</EPOCH><MEAN_MOTION>15.09671058</MEAN_MOTION><ECCENTRICITY>.0013425</ECCENTRICITY><INCLINATION>97.5351</INCLINATION><RA_OF_ASC_NODE>122.8806</RA_OF_ASC_NODE><ARG_OF_PERICENTER>267.6966</ARG_OF_PERICENTER><MEAN_ANOMALY>92.2714</MEAN_ANOMALY></meanElements><tleParameters><EPHEMERIS_TYPE>0</EPHEMERIS_TYPE><CLASSIFICATION_TYPE>U</CLASSIFICATION_TYPE><NORAD_CAT_ID>54690</NORAD_CAT_ID><ELEMENT_SET_NO>999</ELEMENT_SET_NO><REV_AT_EPOCH>70</REV_AT_EPOCH><BSTAR>.35434E-3</BSTAR><MEAN_MOTION_DOT>.5654E-4</MEAN_MOTION_DOT><MEAN_MOTION_DDOT>0</MEAN_MOTION_DDOT></tleParameters></data></segment></body></omm>
<omm id="CCSDS_OMM_VERS" version="2.0">
<header><CREATION_DATE/><ORIGINATOR/></header><body><segment><metadata><OBJECT_NAME>2022-167K</OBJECT_NAME><OBJECT_ID>2022-167K</OBJECT_ID><CENTER_NAME>EARTH</CENTER_NAME><REF_FRAME>TEME</REF_FRAME><TIME_SYSTEM>UTC</TIME_SYSTEM><MEAN_ELEMENT_THEORY>SGP4</MEAN_ELEMENT_THEORY></metadata><data><meanElements><EPOCH>2022-12-13T22:58:32.087712</EPOCH><MEAN_MOTION>15.09584900</MEAN_MOTION><ECCENTRICITY>.0013784</ECCENTRICITY><INCLINATION>97.5410</INCLINATION><RA_OF_ASC_NODE>122.8827</RA_OF_ASC_NODE><ARG_OF_PERICENTER>265.3823</ARG_OF_PERICENTER><MEAN_ANOMALY>94.5832</MEAN_ANOMALY></meanElements><tleParameters><EPHEMERIS_TYPE>0</EPHEMERIS_TYPE><CLASSIFICATION_TYPE>U</CLASSIFICATION_TYPE><NORAD_CAT_ID>54691</NORAD_CAT_ID><ELEMENT_SET_NO>999</ELEMENT_SET_NO><REV_AT_EPOCH>70</REV_AT_EPOCH><BSTAR>.26212E-3</BSTAR><MEAN_MOTION_DOT>.4155E-4</MEAN_MOTION_DOT><MEAN_MOTION_DDOT>0</MEAN_MOTION_DDOT></tleParameters></data></segment></body></omm>
<omm id="CCSDS_OMM_VERS" version="2.0">
<header><CREATION_DATE/><ORIGINATOR/></header><body><segment><metadata><OBJECT_NAME>2022-167L</OBJECT_NAME><OBJECT_ID>2022-167L</OBJECT_ID><CENTER_NAME>EARTH</CENTER_NAME><REF_FRAME>TEME</REF_FRAME><TIME_SYSTEM>UTC</TIME_SYSTEM><MEAN_ELEMENT_THEORY>SGP4</MEAN_ELEMENT_THEORY></metadata><data><meanElements><EPOCH>2022-12-14T06:55:21.937440</EPOCH><MEAN_MOTION>15.09679843</MEAN_MOTION><ECCENTRICITY>.0014286</ECCENTRICITY><INCLINATION>97.5437</INCLINATION><RA_OF_ASC_NODE>123.2095</RA_OF_ASC_NODE><ARG_OF_PERICENTER>265.2357</ARG_OF_PERICENTER><MEAN_ANOMALY>94.7243</MEAN_ANOMALY></meanElements><tleParameters><EPHEMERIS_TYPE>0</EPHEMERIS_TYPE><CLASSIFICATION_TYPE>U</CLASSIFICATION_TYPE><NORAD_CAT_ID>54692</NORAD_CAT_ID><ELEMENT_SET_NO>999</ELEMENT_SET_NO><REV_AT_EPOCH>75</REV_AT_EPOCH><BSTAR>.32174E-3</BSTAR><MEAN_MOTION_DOT>.513E-4</MEAN_MOTION_DOT><MEAN_MOTION_DDOT>0</MEAN_MOTION_DDOT></tleParameters></data></segment></body></omm>
<omm id="CCSDS_OMM_VERS" version="2.0">
<header><CREATION_DATE/><ORIGINATOR/></header><body><segment><metadata><OBJECT_NAME>2022-167M</OBJECT_NAME><OBJECT_ID>2022-167M</OBJECT_ID><CENTER_NAME>EARTH</CENTER_NAME><REF_FRAME>TEME</REF_FRAME><TIME_SYSTEM>UTC</TIME_SYSTEM><MEAN_ELEMENT_THEORY>SGP4</MEAN_ELEMENT_THEORY></metadata><data><meanElements><EPOCH>2022-12-13T23:02:46.946112</EPOCH><MEAN_MOTION>15.08663304</MEAN_MOTION><ECCENTRICITY>.0013405</ECCENTRICITY><INCLINATION>97.5416</INCLINATION><RA_OF_ASC_NODE>122.8768</RA_OF_ASC_NODE><ARG_OF_PERICENTER>245.9380</ARG_OF_PERICENTER><MEAN_ANOMALY>114.0444</MEAN_ANOMALY></meanElements><tleParameters><EPHEMERIS_TYPE>0</EPHEMERIS_TYPE><CLASSIFICATION_TYPE>U</CLASSIFICATION_TYPE><NORAD_CAT_ID>54693</NORAD_CAT_ID><ELEMENT_SET_NO>999</ELEMENT_SET_NO><REV_AT_EPOCH>67</REV_AT_EPOCH><BSTAR>.70981E-3</BSTAR><MEAN_MOTION_DOT>.11088E-3</MEAN_MOTION_DOT><MEAN_MOTION_DDOT>0</MEAN_MOTION_DDOT></tleParameters></data></segment></body></omm>
<omm id="CCSDS_OMM_VERS" version="2.0">
<header><CREATION_DATE/><ORIGINATOR/></header><body><segment><metadata><OBJECT_NAME>2022-167N</OBJECT_NAME><OBJECT_ID>2022-167N</OBJECT_ID><CENTER_NAME>EARTH</CENTER_NAME><REF_FRAME>TEME</REF_FRAME><TIME_SYSTEM>UTC</TIME_SYSTEM><MEAN_ELEMENT_THEORY>SGP4</MEAN_ELEMENT_THEORY></metadata><data><meanElements><EPOCH>2022-12-13T22:57:39.934944</EPOCH><MEAN_MOTION>15.09781169</MEAN_MOTION><ECCENTRICITY>.0014425</ECCENTRICITY><INCLINATION>97.5379</INCLINATION><RA_OF_ASC_NODE>122.8813</RA_OF_ASC_NODE><ARG_OF_PERICENTER>268.2410</ARG_OF_PERICENTER><MEAN_ANOMALY>91.7164</MEAN_ANOMALY></meanElements><tleParameters><EPHEMERIS_TYPE>0</EPHEMERIS_TYPE><CLASSIFICATION_TYPE>U</CLASSIFICATION_TYPE><NORAD_CAT_ID>54694</NORAD_CAT_ID><ELEMENT_SET_NO>999</ELEMENT_SET_NO><REV_AT_EPOCH>70</REV_AT_EPOCH><BSTAR>.30068E-3</BSTAR><MEAN_MOTION_DOT>.4804E-4</MEAN_MOTION_DOT><MEAN_MOTION_DDOT>0</MEAN_MOTION_DDOT></tleParameters></data></segment></body></omm>
<omm id="CCSDS_OMM_VERS" version="2.0">
<header><CREATION_DATE/><ORIGINATOR/></header><body><segment><metadata><OBJECT_NAME>2022-167P</OBJECT_NAME><OBJECT_ID>2022-167P</OBJECT_ID><CENTER_NAME>EARTH</CENTER_NAME><REF_FRAME>TEME</REF_FRAME><TIME_SYSTEM>UTC</TIME_SYSTEM><MEAN_ELEMENT_THEORY>SGP4</MEAN_ELEMENT_THEORY></metadata><data><meanElements><EPOCH>2022-12-13T22:57:39.137472</EPOCH><MEAN_MOTION>15.09786543</MEAN_MOTION><ECCENTRICITY>.0014703</ECCENTRICITY><INCLINATION>97.5402</INCLINATION><RA_OF_ASC_NODE>122.8822</RA_OF_ASC_NODE><ARG_OF_PERICENTER>270.1203</ARG_OF_PERICENTER><MEAN_ANOMALY>89.8329</MEAN_ANOMALY></meanElements><tleParameters><EPHEMERIS_TYPE>0</EPHEMERIS_TYPE><CLASSIFICATION_TYPE>U</CLASSIFICATION_TYPE><NORAD_CAT_ID>54695</NORAD_CAT_ID><ELEMENT_SET_NO>999</ELEMENT_SET_NO><REV_AT_EPOCH>70</REV_AT_EPOCH><BSTAR>.3411E-3</BSTAR><MEAN_MOTION_DOT>.546E-4</MEAN_MOTION_DOT><MEAN_MOTION_DDOT>0</MEAN_MOTION_DDOT></tleParameters></data></segment></body></omm>
<omm id="CCSDS_OMM_VERS" version="2.0">
<header><CREATION_DATE/><ORIGINATOR/></header><body><segment><metadata><OBJECT_NAME>FALCON 9 R/B</OBJECT_NAME><OBJECT_ID>2022-168C</OBJECT_ID><CENTER_NAME>EARTH</CENTER_NAME><REF_FRAME>TEME</REF_FRAME><TIME_SYSTEM>UTC</TIME_SYSTEM><MEAN_ELEMENT_THEORY>SGP4</MEAN_ELEMENT_THEORY></metadata><data><meanElements><EPOCH>2022-12-11T07:46:05.978784</EPOCH><MEAN_MOTION>16.15592824</MEAN_MOTION><ECCENTRICITY>.00983</ECCENTRICITY><INCLINATION>29.0000</INCLINATION><RA_OF_ASC_NODE>41.2312</RA_OF_ASC_NODE><ARG_OF_PERICENTER>59.8200</ARG_OF_PERICENTER><MEAN_ANOMALY>27.0300</MEAN_ANOMALY></meanElements><tleParameters><EPHEMERIS_TYPE>0</EPHEMERIS_TYPE><CLASSIFICATION_TYPE>U</CLASSIFICATION_TYPE><NORAD_CAT_ID>54698</NORAD_CAT_ID><ELEMENT_SET_NO>999</ELEMENT_SET_NO><REV_AT_EPOCH>0</REV_AT_EPOCH><BSTAR>0</BSTAR><MEAN_MOTION_DOT>.2049E-4</MEAN_MOTION_DOT><MEAN_MOTION_DDOT>-.64822E-5</MEAN_MOTION_DDOT></tleParameters></data></segment></body></omm>
<omm id="CCSDS_OMM_VERS" version="2.0">
<header><CREATION_DATE/><ORIGINATOR/></header><body><segment><metadata><OBJECT_NAME>2022-169A</OBJECT_NAME><OBJECT_ID>2022-169A</OBJECT_ID><CENTER_NAME>EARTH</CENTER_NAME><REF_FRAME>TEME</REF_FRAME><TIME_SYSTEM>UTC</TIME_SYSTEM><MEAN_ELEMENT_THEORY>SGP4</MEAN_ELEMENT_THEORY></metadata><data><meanElements><EPOCH>2022-12-14T03:29:48.507648</EPOCH><MEAN_MOTION>14.29221146</MEAN_MOTION><ECCENTRICITY>.0006659</ECCENTRICITY><INCLINATION>59.9950</INCLINATION><RA_OF_ASC_NODE>151.1837</RA_OF_ASC_NODE><ARG_OF_PERICENTER>247.7193</ARG_OF_PERICENTER><MEAN_ANOMALY>112.3129</MEAN_ANOMALY></meanElements><tleParameters><EPHEMERIS_TYPE>0</EPHEMERIS_TYPE><CLASSIFICATION_TYPE>U</CLASSIFICATION_TYPE><NORAD_CAT_ID>54699</NORAD_CAT_ID><ELEMENT_SET_NO>999</ELEMENT_SET_NO><REV_AT_EPOCH>25</REV_AT_EPOCH><BSTAR>0</BSTAR><MEAN_MOTION_DOT>-.136E-5</MEAN_MOTION_DOT><MEAN_MOTION_DDOT>0</MEAN_MOTION_DDOT></tleParameters></data></segment></body></omm>

</ndm>