2022-167J               
1 54690U 22167J   22347.95706737  .00005654  00000+0  35434-3 0  9995
2 54690  97.5351 122.8806 0013425 267.6966  92.2714 15.09671058   704
2022-167K               
1 54691U 22167K   22347.95731583  .00004155  00000+0  26212-3 0  9992
2 54691  97.5410 122.8827 0013784 265.3823  94.5832 15.09584900   704
2022-167L               
1 54692U 22167L   22348.28844835  .00005130  00000+0  32174-3 0  9993
2 54692  97.5437 123.2095 0014286 265.2357  94.7243 15.09679843   759
2022-167M               
1 54693U 22167M   22347.96026558  .00011088  00000+0  70981-3 0  9999
2 54693  97.5416 122.8768 0013405 245.9380 114.0444 15.08663304   676
2022-167N               
1 54694U 22167N   22347.95671221  .00004804  00000+0  30068-3 0  9992
2 54694  97.5379 122.8813 0014425 268.2410  91.7164 15.09781169   706
2022-167P               
1 54695U 22167P   22347.95670298  .00005460  00000+0  34110-3 0  9997
2 54695  97.5402 122.8822 0014703 270.1203  89.8329 15.09786543   707
FALCON 9 R/B            
1 54698U 22168C   22345.32368031  .00002049 -64822-5  00000+0 0  9995
2 54698  29.0000  41.2312 0098300  59.8200  27.0300 16.15592824    07
2022-169A               
1 54699U 22169A   22348.14570032 -.00000136  00000+0  00000+0 0  9993
2 54699  59.9950 151.1837 0006659 247.7193 112.3129 14.29221146   255
